ONEWEB-0549             
1 56051U 23043F   24158.40001818  .00000040  00000+0  64936-4 0  9996
2 56051  87.9302  31.4443 0001999  81.4465 278.6895 13.21826024 60362
ONEWEB-0550             
1 56052U 23043G   24158.38739957  .00000074  00000+0  14733-3 0  9992
2 56052  87.9298  31.4549 0001900  88.3510 271.7842 13.21826240 60369
ONEWEB-0551             
1 56053U 23043H   24158.43292240  .00000066  00000+0  14044-3 0  9994
2 56053  87.9051  46.6464 0002136  79.8655 280.2716 13.15549289 59000
ONEWEB-0552             
1 56054U 23043J   24158.38108936  .00000088  00000+0  18150-3 0  9993
2 56054  87.9299  31.4660 0002146  90.4382 269.6998 13.21824173 60361
ONEWEB-0553             
1 56055U 23043K   24158.51556328  .00000108  00000+0  24890-3 0  9992
2 56055  87.9111  16.2285 0001547  74.0922 286.0379 13.16594088 61518
ONEWEB-0554             
1 56056U 23043L   24158.50289577  .00000081  00000+0  17716-3 0  9990
2 56056  87.9112  16.2520 0001878 105.8911 254.2426 13.16592698 61492
ONEWEB-0555             
1 56057U 23043M   24158.31290375  .00000051  00000+0  10064-3 0  9994
2 56057  87.9111  16.2619 0001143  77.5084 282.6174 13.16593374 61477
ONEWEB-0557             
1 56058U 23043N   24158.32714995  .00000003  00000+0 -25792-4 0  9998
2 56058  87.9109  16.2844 0000815 100.9342 259.1881 13.16593329 61472
